{
    "links": {
        "self": "http://www.neowsapp.com/rest/v1/neo/3989245?api_key=iIulBulltgU6a56xZRHN4H3l9WmuAYTsLGpBGhQ2"
    },
    "id": "3989245",
    "neo_reference_id": "3989245",
    "name": "(2020 BQ10)",
    "designation": "2020 BQ10",
    "nasa_jpl_url": "http://ssd.jpl.nasa.gov/sbdb.cgi?sstr=3989245",
    "absolute_magnitude_h": 22.92,
    "estimated_diameter": {
        "kilometers": {
            "estimated_diameter_min": 0.0692715614,
            "estimated_diameter_max": 0.1548959201
        },
        "meters": {
            "estimated_diameter_min": 69.271561359,
            "estimated_diameter_max": 154.8959201062
        },
        "miles": {
            "estimated_diameter_min": 0.0430433394,
            "estimated_diameter_max": 0.0962478328
        },
        "feet": {
            "estimated_diameter_min": 227.268909369,
            "estimated_diameter_max": 508.1887305212
        }
    },
    "is_potentially_hazardous_asteroid": false,
    "close_approach_data": [
        {
            "close_approach_date": "2019-12-24",
            "close_approach_date_full": "2019-Dec-24 10:59",
            "epoch_date_close_approach": 1577185140000,
            "relative_velocity": {
                "kilometers_per_second": "15.4221319775",
                "kilometers_per_hour": "55519.6751189593",
                "miles_per_hour": "34497.7670204445"
            },
            "miss_distance": {
                "astronomical": "0.0775636031",
                "lunar": "30.1722416059",
                "kilometers": "11603349.813285397",
                "miles": "7209987.2424245986"
            },
            "orbiting_body": "Earth"
        }
    ],
    "orbital_data": {
        "orbit_id": "1",
        "orbit_determination_date": "2020-01-28 07:12:31",
        "first_observation_date": "2020-01-18",
        "last_observation_date": "2020-01-28",
        "data_arc_in_days": 10,
        "observations_used": 14,
        "orbit_uncertainty": "9",
        "minimum_orbit_intersection": ".0657344",
        "jupiter_tisserand_invariant": "3.073",
        "epoch_osculation": "2458870.5",
        "eccentricity": ".6481515846751063",
        "semi_major_axis": "2.512280758042254",
        "inclination": "18.7297684204079",
        "ascending_node_longitude": "92.24909537155636",
        "orbital_period": "1454.456326022028",
        "perihelion_distance": ".8839420035683899",
        "perihelion_argument": "338.2146308441125",
        "aphelion_distance": "4.140619512516118",
        "perihelion_time": "2458826.033735181016",
        "mean_anomaly": "11.0060749494047",
        "mean_motion": ".2475151667046672",
        "equinox": "J2000",
        "orbit_class": {
            "orbit_class_type": "APO",
            "orbit_class_description": "Near-Earth asteroid orbits which cross the Earth’s orbit similar to that of 1862 Apollo",
            "orbit_class_range": "a (semi-major axis) > 1.0 AU; q (perihelion) < 1.017 AU"
        }
    },
    "is_sentry_object": false
}